ONEWEB-0584             
1 54651U 22166K   23260.50399873 -.00000022  00000+0 -83692-4 0  9992
2 54651  87.9169  83.8094 0001350  94.8455 265.2833 13.21827715 38927
ONEWEB-0585             
1 54652U 22166L   23261.05699153  .00002573  00000+0  61941-2 0  9990
2 54652  87.9171  83.7003 0002970  70.6300 289.5155 13.21844456 39478
ONEWEB-0586             
1 54653U 22166M   23260.53975082  .00000106  00000+0  22517-3 0  9998
2 54653  87.9145  83.8530 0001524  97.5398 262.5909 13.21825132 38933
ONEWEB-0587             
1 54654U 22166N   23260.77839671  .00000056  00000+0  10499-3 0  9998
2 54654  87.9165  83.7488 0002090  72.8404 287.2959 13.21830048 39583
ONEWEB-0589             
1 54655U 22166P   23260.76474535  .00000042  00000+0  70392-4 0  9996
2 54655  87.9172  83.7640 0000899 123.0070 237.1151 13.21824955 39459
ONEWEB-0590             
1 54656U 22166Q   23260.56287249 -.00000055  00000+0 -16456-3 0  9995
2 54656  87.9171  83.8104 0001775  81.0234 279.1101 13.21829736 38940
ONEWEB-0591             
1 54657U 22166R   23261.02967880 -.00000014  00000+0 -66072-4 0  9999
2 54657  87.9175  83.7148 0001503  88.3205 271.8101 13.21826657 39498
ONEWEB-0592             
1 54658U 22166S   23260.50188017  .00000029  00000+0  37893-4 0  9992
2 54658  87.9163  83.8055 0001368  85.9848 274.1443 13.21829034 38844
